ALOS-4 (DAICHI-4)       
1 60182U 24123A   24201.86409042  .00004138  00000+0  55919-3 0  9998
2 60182  97.8989 298.0598 0001970  98.5253 261.6182 14.79579006  2779
